[{"OBJECT_NAME":"HAWK-7A","OBJECT_ID":"2023-054P","EPOCH":"2026-03-04T12:13:33.825792","MEAN_MOTION":15.26156237,"ECCENTRICITY":0.0004466,"INCLINATION":97.2844,"RA_OF_ASC_NODE":313.5095,"ARG_OF_PERICENTER":61.1875,"MEAN_ANOMALY":298.9812,"EPHEMERIS_TYPE":0,"CLASSIFICATION_TYPE":"U","NORAD_CAT_ID":56191,"ELEMENT_SET_NO":999,"REV_AT_EPOCH":16105,"BSTAR":0.00041046931,"MEAN_MOTION_DOT":0.00010541,"MEAN_MOTION_DDOT":0},{"OBJECT_NAME":"HAWK-7B","OBJECT_ID":"2023-054R","EPOCH":"2026-03-04T18:31:04.842048","MEAN_MOTION":15.26122439,"ECCENTRICITY":0.0003959,"INCLINATION":97.2876,"RA_OF_ASC_NODE":311.9888,"ARG_OF_PERICENTER":69.7086,"MEAN_ANOMALY":290.4577,"EPHEMERIS_TYPE":0,"CLASSIFICATION_TYPE":"U","NORAD_CAT_ID":56193,"ELEMENT_SET_NO":999,"REV_AT_EPOCH":16109,"BSTAR":0.00051706,"MEAN_MOTION_DOT":0.00013287,"MEAN_MOTION_DDOT":0},{"OBJECT_NAME":"HAWK-7C","OBJECT_ID":"2023-054Y","EPOCH":"2026-03-04T18:30:54.894816","MEAN_MOTION":15.26121786,"ECCENTRICITY":0.0003932,"INCLINATION":97.2848,"RA_OF_ASC_NODE":312.7922,"ARG_OF_PERICENTER":62.5077,"MEAN_ANOMALY":297.6561,"EPHEMERIS_TYPE":0,"CLASSIFICATION_TYPE":"U","NORAD_CAT_ID":56200,"ELEMENT_SET_NO":999,"REV_AT_EPOCH":16109,"BSTAR":0.00037105,"MEAN_MOTION_DOT":9.51e-5,"MEAN_MOTION_DDOT":0}]
