HAWK-7A                 
1 56191U 23054P   26063.50941928  .00010541  00000+0  41047-3 0  9990
2 56191  97.2844 313.5095 0004466  61.1875 298.9812 15.26156237161052
HAWK-7B                 
1 56193U 23054R   26063.77158382  .00013287  00000+0  51706-3 0  9998
2 56193  97.2876 311.9888 0003959  69.7086 290.4577 15.26122439161091
HAWK-7C                 
1 56200U 23054Y   26063.77146869  .00009510  00000+0  37105-3 0  9995
2 56200  97.2848 312.7922 0003932  62.5077 297.6561 15.26121786161095
